{
  "type": "FeatureCollection",
  "features": [
    {
      "type": "Feature",
      "properties": {
        "norad_id": 44231,
        "name": "BEIDOU-2 G8 (C01)",
        "group": "gnss",
        "lat": 1.6979383354736668,
        "lon": 161.93418737834443,
        "alt_km": 35819.43112513863,
        "timestamp": "2025-12-23T18:59:32.214535+00:00",
        "meta_object_name": "BEIDOU-2 G8 (C01)",
        "meta_object_id": "2019-027A",
        "meta_epoch": "2025-12-23T06:58:21.742752",
        "meta_mean_motion": 1.00274967,
        "meta_eccentricity": 0.0008282,
        "meta_inclination": 1.6867,
        "meta_ra_of_asc_node": 74.7754,
        "meta_arg_of_pericenter": 258.408,
        "meta_mean_anomaly": 7.9785,
        "meta_ephemeris_type": 0,
        "meta_classification_type": "U",
        "meta_norad_cat_id": 44231,
        "meta_element_set_no": 999,
        "meta_rev_at_epoch": 2431,
        "meta_bstar": 0,
        "meta_mean_motion_dot": -2.26e-06,
        "meta_mean_motion_ddot": 0,
        "tle_line1": "1 44231U 19027A   25357.29052943 -.00000226  00000+0  00000+0 0  9998",
        "tle_line2": "2 44231   1.6867  74.7754 0008282 258.4080   7.9785  1.00274967 24317"
      },
      "geometry": {
        "type": "Point",
        "coordinates": [
          161.93418737834443,
          1.6979383354736668
        ]
      }
    },
    {
      "type": "Feature",
      "properties": {
        "norad_id": 44299,
        "name": "COSMOS 2534 (758)",
        "group": "gnss",
        "lat": -36.265328727318185,
        "lon": 39.16254295814401,
        "alt_km": 19124.46049487793,
        "timestamp": "2025-12-23T18:59:32.214545+00:00",
        "meta_object_name": "COSMOS 2534 (758)",
        "meta_object_id": "2019-030A",
        "meta_epoch": "2025-12-23T06:38:38.752224",
        "meta_mean_motion": 2.13102317,
        "meta_eccentricity": 0.00086492,
        "meta_inclination": 64.3662,
        "meta_ra_of_asc_node": 198.5378,
        "meta_arg_of_pericenter": 283.8843,
        "meta_mean_anomaly": 262.5113,
        "meta_ephemeris_type": 0,
        "meta_classification_type": "U",
        "meta_norad_cat_id": 44299,
        "meta_element_set_no": 999,
        "meta_rev_at_epoch": 5117,
        "meta_bstar": 0,
        "meta_mean_motion_dot": 9.5e-07,
        "meta_mean_motion_ddot": 0,
        "tle_line1": "1 44299U 19030A   25357.27683741  .00000095  00000+0  00000+0 0  9993",
        "tle_line2": "2 44299  64.3662 198.5378 0008649 283.8843 262.5113  2.13102317 51175"
      },
      "geometry": {
        "type": "Point",
        "coordinates": [
          39.16254295814401,
          -36.265328727318185
        ]
      }
    },
    {
      "type": "Feature",
      "properties": {
        "norad_id": 44337,
        "name": "BEIDOU-3 IGSO-2 (C39)",
        "group": "gnss",
        "lat": -18.89630677843949,
        "lon": 146.6175845925291,
        "alt_km": 35901.39028029839,
        "timestamp": "2025-12-23T18:59:32.214555+00:00",
        "meta_object_name": "BEIDOU-3 IGSO-2 (C39)",
        "meta_object_id": "2019-035A",
        "meta_epoch": "2025-12-23T08:31:21.128160",
        "meta_mean_motion": 1.00268022,
        "meta_eccentricity": 0.00377901,
        "meta_inclination": 55.229,
        "meta_ra_of_asc_node": 160.4081,
        "meta_arg_of_pericenter": 202.4129,
        "meta_mean_anomaly": 336.515,
        "meta_ephemeris_type": 0,
        "meta_classification_type": "U",
        "meta_norad_cat_id": 44337,
        "meta_element_set_no": 999,
        "meta_rev_at_epoch": 2390,
        "meta_bstar": 0,
        "meta_mean_motion_dot": -7.5e-07,
        "meta_mean_motion_ddot": 0,
        "tle_line1": "1 44337U 19035A   25357.35510565 -.00000075  00000+0  00000+0 0  9992",
        "tle_line2": "2 44337  55.2290 160.4081 0037790 202.4129 336.5150  1.00268022 23900"
      },
      "geometry": {
        "type": "Point",
        "coordinates": [
          146.6175845925291,
          -18.89630677843949
        ]
      }
    },
    {
      "type": "Feature",
      "properties": {
        "norad_id": 44506,
        "name": "GPS BIII-2  (PRN 18)",
        "group": "gnss",
        "lat": 54.53536897155824,
        "lon": 84.90338344517028,
        "alt_km": 20198.537767594302,
        "timestamp": "2025-12-23T18:59:32.214567+00:00",
        "meta_object_name": "GPS BIII-2  (PRN 18)",
        "meta_object_id": "2019-056A",
        "meta_epoch": "2025-12-23T03:47:40.057728",
        "meta_mean_motion": 2.00566586,
        "meta_eccentricity": 0.0057745,
        "meta_inclination": 55.7177,
        "meta_ra_of_asc_node": 338.1397,
        "meta_arg_of_pericenter": 198.5953,
        "meta_mean_anomaly": 164.4501,
        "meta_ephemeris_type": 0,
        "meta_classification_type": "U",
        "meta_norad_cat_id": 44506,
        "meta_element_set_no": 999,
        "meta_rev_at_epoch": 4654,
        "meta_bstar": 0,
        "meta_mean_motion_dot": -6.4e-07,
        "meta_mean_motion_ddot": 0,
        "tle_line1": "1 44506U 19056A   25357.15810252 -.00000064  00000+0  00000+0 0  9995",
        "tle_line2": "2 44506  55.7177 338.1397 0057745 198.5953 164.4501  2.00566586 46543"
      },
      "geometry": {
        "type": "Point",
        "coordinates": [
          84.90338344517028,
          54.53536897155824
        ]
      }
    },
    {
      "type": "Feature",
      "properties": {
        "norad_id": 44542,
        "name": "BEIDOU-3 M24 (C46)",
        "group": "gnss",
        "lat": 54.36484223897698,
        "lon": -82.20744878293293,
        "alt_km": 21509.974471350964,
        "timestamp": "2025-12-23T18:59:32.214577+00:00",
        "meta_object_name": "BEIDOU-3 M24 (C46)",
        "meta_object_id": "2019-061A",
        "meta_epoch": "2025-12-20T23:21:37.865088",
        "meta_mean_motion": 1.86229471,
        "meta_eccentricity": 0.0009592,
        "meta_inclination": 54.4004,
        "meta_ra_of_asc_node": 188.7381,
        "meta_arg_of_pericenter": 25.7188,
        "meta_mean_anomaly": 334.3821,
        "meta_ephemeris_type": 0,
        "meta_classification_type": "U",
        "meta_norad_cat_id": 44542,
        "meta_element_set_no": 999,
        "meta_rev_at_epoch": 4247,
        "meta_bstar": 0,
        "meta_mean_motion_dot": 9.6e-07,
        "meta_mean_motion_ddot": 0,
        "tle_line1": "1 44542U 19061A   25354.97335492  .00000096  00000+0  00000+0 0  9990",
        "tle_line2": "2 44542  54.4004 188.7381 0009592  25.7188 334.3821  1.86229471 42471"
      },
      "geometry": {
        "type": "Point",
        "coordinates": [
          -82.20744878293293,
          54.36484223897698
        ]
      }
    },
    {
      "type": "Feature",
      "properties": {
        "norad_id": 44543,
        "name": "BEIDOU-3 M23 (C45)",
        "group": "gnss",
        "lat": 1.661158295039705,
        "lon": -170.1937732830587,
        "alt_km": 21512.90839342956,
        "timestamp": "2025-12-23T18:59:32.214587+00:00",
        "meta_object_name": "BEIDOU-3 M23 (C45)",
        "meta_object_id": "2019-061B",
        "meta_epoch": "2025-12-22T04:16:38.631360",
        "meta_mean_motion": 1.86227761,
        "meta_eccentricity": 0.00060882,
        "meta_inclination": 54.3995,
        "meta_ra_of_asc_node": 188.6659,
        "meta_arg_of_pericenter": 26.1092,
        "meta_mean_anomaly": 334.4978,
        "meta_ephemeris_type": 0,
        "meta_classification_type": "U",
        "meta_norad_cat_id": 44543,
        "meta_element_set_no": 999,
        "meta_rev_at_epoch": 4250,
        "meta_bstar": 0,
        "meta_mean_motion_dot": 9.4e-07,
        "meta_mean_motion_ddot": 0,
        "tle_line1": "1 44543U 19061B   25356.17822490  .00000094  00000+0  00000+0 0  9992",
        "tle_line2": "2 44543  54.3995 188.6659 0006088  26.1092 334.4978  1.86227761 42501"
      },
      "geometry": {
        "type": "Point",
        "coordinates": [
          -170.1937732830587,
          1.661158295039705
        ]
      }
    },
    {
      "type": "Feature",
      "properties": {
        "norad_id": 44624,
        "name": "EUTELSAT 5 WEST B (EGNOS/PRN 121)",
        "group": "gnss",
        "lat": 0.03693173828642954,
        "lon": 12.490792183130282,
        "alt_km": 35788.69138230242,
        "timestamp": "2025-12-23T18:59:32.214601+00:00",
        "meta_object_name": "EUTELSAT 5 WEST B (EGNOS/PRN 121)",
        "meta_object_id": "2019-067A",
        "meta_epoch": "2025-12-23T06:15:40.832064",
        "meta_mean_motion": 1.00271344,
        "meta_eccentricity": 0.00030724,
        "meta_inclination": 0.0646,
        "meta_ra_of_asc_node": 340.438,
        "meta_arg_of_pericenter": 290.9122,
        "meta_mean_anomaly": 269.6265,
        "meta_ephemeris_type": 0,
        "meta_classification_type": "U",
        "meta_norad_cat_id": 44624,
        "meta_element_set_no": 999,
        "meta_rev_at_epoch": 2267,
        "meta_bstar": 0,
        "meta_mean_motion_dot": -2.1e-07,
        "meta_mean_motion_ddot": 0,
        "tle_line1": "1 44624U 19067A   25357.26088926 -.00000021  00000+0  00000+0 0  9998",
        "tle_line2": "2 44624   0.0646 340.4380 0003072 290.9122 269.6265  1.00271344 22672"
      },
      "geometry": {
        "type": "Point",
        "coordinates": [
          12.490792183130282,
          0.03693173828642954
        ]
      }
    }
  ]
}